NORAD_CAT_ID,OBJECT_NAME,OBJECT_TYPE,EPOCH,MEAN_MOTION,ECCENTRICITY,INCLINATION,RA_OF_ASC_NODE,ARG_OF_PERICENTER,MEAN_ANOMALY,BSTAR,MEAN_MOTION_DOT,MEAN_MOTION_DDOT,TLE_LINE0,TLE_LINE1,TLE_LINE2,SEMIMAJOR_AXIS,PERIOD,APOGEE,PERIGEE,DECAYED
52994.0,STARLINK-4256,PAYLOAD,2023-01-29 14:39:12,15.08837771,0.0002427,53.2166,149.7015,75.722,284.4042,-1.6812e-05,-5.56e-06,0.0,0 STARLINK-4256,1 52994U 22076J   23029.61056200 -.00000556  00000-0 -16812-4 0  9992,2 52994  53.2166 149.7015 0002427  75.7220 284.4042 15.08837771 31486,6917.887,95.438,541.431,538.073,0.0
52994.0,STARLINK-4256,PAYLOAD,2023-01-30 11:19:13,15.08834525,0.0002347,53.2164,145.8358,86.4949,273.6312,5.3193e-05,5.58e-06,0.0,0 STARLINK-4256,1 52994U 22076J   23030.47168226  .00000558  00000-0  53193-4 0  9993,2 52994  53.2164 145.8358 0002347  86.4949 273.6312 15.08834525 31618,6917.897,95.438,541.386,538.138,0.0
52994.0,STARLINK-4256,PAYLOAD,2023-01-31 00:02:18,15.08838467,0.0002246,53.2157,143.4567,92.6775,267.4474,1.4595e-05,-5.6e-07,0.0,0 STARLINK-4256,1 52994U 22076J   23031.00160136 -.00000056  00000-0  14595-4 0  9992,2 52994  53.2157 143.4567 0002246  92.6775 267.4474 15.08838467 32160,6917.885,95.438,541.304,538.196,0.0
52994.0,STARLINK-4256,PAYLOAD,2023-01-31 12:45:23,15.0883923,0.0002359,53.2173,141.0782,93.9644,266.1618,7.8686e-05,9.64e-06,0.0,0 STARLINK-4256,1 52994U 22076J   23031.53152115  .00000964  00000-0  78686-4 0  9996,2 52994  53.2173 141.0782 0002359  93.9644 266.1618 15.08839230 31776,6917.883,95.438,541.38,538.116,0.0
52994.0,STARLINK-4256,PAYLOAD,2023-02-01 06:14:38,15.08839582,0.0002329,53.2173,137.8075,92.6536,267.4723,5.794e-05,6.34e-06,0.0,0 STARLINK-4256,1 52994U 22076J   23032.26016240  .00000634  00000-0  57940-4 0  9999,2 52994  53.2173 137.8075 0002329  92.6536 267.4723 15.08839582 32353,6917.882,95.438,541.358,538.135,0.0
52994.0,STARLINK-4256,PAYLOAD,2023-02-01 12:36:10,15.08842552,0.0002371,53.2177,136.6181,94.7469,265.3794,7.9159e-05,9.72e-06,0.0,0 STARLINK-4256,1 52994U 22076J   23032.52511973  .00000972  00000-0  79159-4 0  9992,2 52994  53.2177 136.6181 0002371  94.7469 265.3794 15.08842552 31925,6917.873,95.437,541.378,538.097,0.0
52994.0,STARLINK-4256,PAYLOAD,2023-02-02 12:26:58,15.0883604,0.0002395,53.2187,132.1578,91.7908,268.3358,-2.9619e-05,-7.6e-06,0.0,0 STARLINK-4256,1 52994U 22076J   23033.51872883 -.00000760  00000-0 -29619-4 0  9995,2 52994  53.2187 132.1578 0002395  91.7908 268.3358 15.08836040 32079,6917.892,95.438,541.414,538.101,0.0
52994.0,STARLINK-4256,PAYLOAD,2023-02-02 23:34:40,15.08834797,0.0002057,53.2171,130.0754,91.3979,268.7249,-1.2296e-05,-4.84e-06,0.0,0 STARLINK-4256,1 52994U 22076J   23033.98240895 -.00000484  00000-0 -12296-4 0  9994,2 52994  53.2171 130.0754 0002057  91.3979 268.7249 15.08834797 32614,6917.896,95.438,541.184,538.338,0.0
52994.0,STARLINK-4256,PAYLOAD,2023-02-03 05:56:12,15.0883212,0.0002016,53.2171,128.8867,92.3906,267.7317,-5.5734e-06,-3.77e-06,0.0,0 STARLINK-4256,1 52994U 22076J   23034.24737151 -.00000377  00000-0 -55734-5 0  9996,2 52994  53.2171 128.8867 0002016  92.3906 267.7317 15.08832120 32185,6917.904,95.438,541.164,538.375,0.0
52994.0,STARLINK-4256,PAYLOAD,2023-02-04 05:46:59,15.08832898,0.0001756,53.2143,124.4243,94.0041,266.1152,0.00012505,1.702e-05,0.0,0 STARLINK-4256,1 52994U 22076J   23035.24096891  .00001702  00000-0  12505-3 0  9994,2 52994  53.2143 124.4243 0001756  94.0041 266.1152 15.08832898 32804,6917.902,95.438,540.982,538.552,0.0
52994.0,STARLINK-4256,PAYLOAD,2023-02-04 12:08:32,15.08840265,0.0001818,53.2152,123.235,96.1619,263.9581,9.8084e-05,1.273e-05,0.0,0 STARLINK-4256,1 52994U 22076J   23035.50592641  .00001273  00000-0  98084-4 0  9997,2 52994  53.2152 123.2350 0001818  96.1619 263.9581 15.08840265 32373,6917.88,95.438,541.002,538.487,0.0
52994.0,STARLINK-4256,PAYLOAD,2023-02-05 11:59:18,15.08848111,0.0001726,53.2153,118.7762,87.3803,272.7387,0.0001374,1.9e-05,0.0,0 STARLINK-4256,1 52994U 22076J   23036.49952089  .00001900  00000-0  13740-3 0  9994,2 52994  53.2153 118.7762 0001726  87.3803 272.7387 15.08848111 32993,6917.856,95.437,540.915,538.527,0.0
52994.0,STARLINK-4256,PAYLOAD,2023-02-06 05:28:33,15.08839002,0.0001805,53.2176,115.5058,101.8248,258.2947,8.9254e-05,1.133e-05,0.0,0 STARLINK-4256,1 52994U 22076J   23037.22816635  .00001133  00000-0  89254-4 0  9994,2 52994  53.2176 115.5058 0001805 101.8248 258.2947 15.08839002 33108,6917.883,95.438,540.997,538.5,0.0
52994.0,STARLINK-4256,PAYLOAD,2023-02-06 13:25:29,15.08843497,0.0001904,53.2171,114.0184,104.7039,255.4164,2.1577e-05,5.5e-07,0.0,0 STARLINK-4256,1 52994U 22076J   23037.55936478  .00000055  00000-0  21577-4 0  9994,2 52994  53.2171 114.0184 0001904 104.7039 255.4164 15.08843497 32682,6917.87,95.437,541.052,538.418,0.0
52994.0,STARLINK-4256,PAYLOAD,2023-02-06 15:00:51,15.08847153,0.0001725,53.2152,113.7183,107.1042,253.0139,3.7492e-05,3.09e-06,0.0,0 STARLINK-4256,1 52994U 22076J   23037.62560091  .00000309  00000-0  37492-4 0  9991,2 52994  53.2152 113.7183 0001725 107.1042 253.0139 15.08847153 32698,6917.859,95.437,540.917,538.53,0.0
52994.0,STARLINK-4256,PAYLOAD,2023-02-07 10:05:29,15.0884762,0.0001736,53.2149,110.1504,101.801,258.3177,2.6257e-05,1.3e-06,0.0,0 STARLINK-4256,1 52994U 22076J   23038.42047931  .00000130  00000-0  26257-4 0  9992,2 52994  53.2149 110.1504 0001736 101.8010 258.3177 15.08847620 33285,6917.857,95.437,540.923,538.521,0.0
52994.0,STARLINK-4256,PAYLOAD,2023-02-08 08:20:53,15.08838685,0.0001696,53.2151,105.9858,114.7433,245.3736,2.5675e-05,1.21e-06,0.0,0 STARLINK-4256,1 52994U 22076J   23039.34784438  .00000121  00000-0  25675-4 0  9997,2 52994  53.2151 105.9858 0001696 114.7433 245.3736 15.08838685 33423,6917.884,95.438,540.923,538.576,0.0
52994.0,STARLINK-4256,PAYLOAD,2023-02-08 09:56:16,15.08838962,0.0001681,53.2152,105.6882,115.2576,244.859,2.7396e-05,1.48e-06,0.0,0 STARLINK-4256,1 52994U 22076J   23039.41408407  .00000148  00000-0  27396-4 0  9995,2 52994  53.2152 105.6882 0001681 115.2576 244.8590 15.08838962 32964,6917.884,95.438,540.911,538.586,0.0
52994.0,STARLINK-4256,PAYLOAD,2023-02-09 05:00:55,15.08836148,0.000152,53.2155,102.121,106.7799,253.336,-3.5521e-05,-8.53e-06,0.0,0 STARLINK-4256,1 52994U 22076J   23040.20897139 -.00000853  00000-0 -35521-4 0  9992,2 52994  53.2155 102.1210 0001520 106.7799 253.3360 15.08836148 33558,6917.892,95.438,540.809,538.706,0.0
52994.0,STARLINK-4256,PAYLOAD,2023-02-09 11:22:27,15.08838468,0.0001428,53.2154,100.9312,91.7009,268.4147,-2.3479e-05,-6.62e-06,0.0,0 STARLINK-4256,1 52994U 22076J   23040.47393064 -.00000662  00000-0 -23479-4 0  9996,2 52994  53.2154 100.9312 0001428  91.7009 268.4147 15.08838468 33120,6917.885,95.438,540.738,538.762,0.0
52994.0,STARLINK-4256,PAYLOAD,2023-02-09 20:54:46,15.08837354,0.0001401,53.2154,99.1468,80.6989,279.4162,7.7122e-05,9.4e-06,0.0,0 STARLINK-4256,1 52994U 22076J   23040.87137083  .00000940  00000-0  77122-4 0  9998,2 52994  53.2154  99.1468 0001401  80.6989 279.4162 15.08837354 33184,6917.888,95.438,540.723,538.784,0.0
52994.0,STARLINK-4256,PAYLOAD,2023-02-10 03:16:19,15.08844239,0.0001538,53.2158,97.9619,86.8217,273.2951,-8.2114e-05,-1.595e-05,0.0,0 STARLINK-4256,1 52994U 22076J   23041.13633364 -.00001595  00000-0 -82114-4 0  9997,2 52994  53.2158  97.9619 0001538  86.8217 273.2951 15.08844239 33228,6917.867,95.437,540.796,538.668,0.0
52994.0,STARLINK-4256,PAYLOAD,2023-02-10 09:37:51,15.08841074,0.0001508,53.2159,96.769,103.384,256.732,0.00010821,1.435e-05,0.0,0 STARLINK-4256,1 52994U 22076J   23041.40128806  .00001435  00000-0  10821-3 0  9993,2 52994  53.2159  96.7690 0001508 103.3840 256.7320 15.08841074 33735,6917.877,95.437,540.785,538.699,0.0
52994.0,STARLINK-4256,PAYLOAD,2023-02-10 20:45:33,15.08836143,0.0001282,53.2157,94.6866,72.4222,287.691,0.00010741,1.422e-05,0.0,0 STARLINK-4256,1 52994U 22076J   23041.86497307  .00001422  00000-0  10741-3 0  9995,2 52994  53.2157  94.6866 0001282  72.4222 287.6910 15.08836143 33339,6917.892,95.438,540.644,538.87,0.0
52994.0,STARLINK-4256,PAYLOAD,2023-02-11 20:36:20,15.08841626,0.0001634,53.2149,90.2301,64.7819,295.3343,7.0098e-05,8.28e-06,0.0,0 STARLINK-4256,1 52994U 22076J   23042.85857428  .00000828  00000-0  70098-4 0  9990,2 52994  53.2149  90.2301 0001634  64.7819 295.3343 15.08841626 33487,6917.875,95.437,540.871,538.61,0.0
52994.0,STARLINK-4256,PAYLOAD,2023-02-12 09:19:26,15.08835474,0.0001345,53.2145,87.8489,69.506,290.6076,0.0001173,1.579e-05,0.0,0 STARLINK-4256,1 52994U 22076J   23043.38849667  .00001579  00000-0  11730-3 0  9996,2 52994  53.2145  87.8489 0001345  69.5060 290.6076 15.08835474 34039,6917.894,95.438,540.69,538.829,0.0
52994.0,STARLINK-4256,PAYLOAD,2023-02-12 20:27:07,15.08849151,0.0001262,53.2143,85.7647,94.2511,265.8625,-5.9184e-06,-3.82e-06,0.0,0 STARLINK-4256,1 52994U 22076J   23043.85216887 -.00000382  00000-0 -59184-5 0  9990,2 52994  53.2143  85.7647 0001262  94.2511 265.8625 15.08849151 34103,6917.852,95.437,540.59,538.844,0.0
52994.0,STARLINK-4256,PAYLOAD,2023-02-13 02:48:40,15.08836458,0.0001384,53.2146,84.5752,94.0072,266.1078,7.991e-05,9.84e-06,0.0,0 STARLINK-4256,1 52994U 22076J   23044.11713546  .00000984  00000-0  79910-4 0  9998,2 52994  53.2146  84.5752 0001384  94.0072 266.1078 15.08836458 34141,6917.891,95.438,540.714,538.799,0.0
52994.0,STARLINK-4256,PAYLOAD,2023-02-13 10:45:35,15.0885141,0.0001314,53.2132,83.0896,111.2818,248.8314,1.5903e-05,-3.5e-07,0.0,0 STARLINK-4256,1 52994U 22076J   23044.44832763 -.00000035  00000-0  15903-4 0  9997,2 52994  53.2132  83.0896 0001314 111.2818 248.8314 15.08851410 34192,6917.846,95.437,540.62,538.802,0.0
52994.0,STARLINK-4256,PAYLOAD,2023-02-14 02:39:27,15.08835163,0.0001635,53.2151,80.1135,103.1678,256.9497,2.106e-05,4.7e-07,0.0,0 STARLINK-4256,1 52994U 22076J   23045.11073936  .00000047  00000-0  21060-4 0  9994,2 52994  53.2151  80.1135 0001635 103.1678 256.9497 15.08835163 34297,6917.895,95.438,540.891,538.629,0.0
